# Made by eph2tle, compiled Dec 13 2025 12:53:27
# Run at Thu Dec 18 15:15:56 2025 UTC
#
#    The following TLEs (Two-Line Elements) were generated by fitting
# a numerically-integrated ephemeris,  based on the orbit given below,
# to the SDP4/SGP4 models.  Each TLE is good for the interval between
# its epoch and the epoch of the subsequent TLE (usually one day).
# The maximum deviation between the numerically integrated ephemerides
# and the TLE-based ephemeris, in kilometers,  is given for each TLE
# as the "worst residual".
#
#    This fitting is done using the 'eph2tle' code packaged with Find_Orb.
# The code has details on how the TLEs were computed :
#
#    https://github.com/Bill-Gray/find_orb/eph2tle.cpp
#
#    Be warned:  the error given is that between the numerically
# integrated ephems and the TLE model.  There will usually be at
# least some additional difference between the ephems and the actual
# motion of the satellite,  especially if the ephemerides are based
# on a short arc.  If the following orbital elements say something
# like "[based on] 10 observations 2015 Jan. 1-13",  and the TLEs
# are for 2015 May,  the extrapolation may be tenuous at best.  If
# your application requires a specific level of accuracy,  you may
# want to contact me;  I can give you some idea as to the fit of the
# underlying data (and possibly TLEs based on newer data).
#
#   You can usually find the underlying observational data,  and the
# fitted orbit,  residuals,  ephemerides,  and sometimes some comments
# about the object,  among the pages listed at
#
#    https://www.projectpluto.com/pluto/mpecs/pseudo.htm
#
#    WARNING:  for this object,  "normal" TLEs cannot be fitted.  (This
# usually means an object with an hyperbolic or nearly-parabolic orbit.)
# For this and similar cases,   an alternative model is used,  in which
# most of the traditional TLE data is replaced by six signed 8-digit hex
# numbers.  These six numbers are a state vector,  numerically integrated
# using a simplified force model.  This is necessary for objects at L2 or
# L1,  and sometimes for objects in high orbits where the SDP4/SGP4 model
# fails.  Some documentation is in 'get_el.cpp' in the source code at
# https://www.github.com/Bill-Gray/sat_code ; look for 'hex' in that file,
# with the actual integration done in 'sdp4.cpp'.  But be aware:  it's my
# own extension,  doesn't work with other code,  and is therefore used
# only when necessary.
#
#    Also,  if you use a TLE outside the "correct" time range (between
# its MJD and that of the next TLE),  all bets are off.  I've carefully
# computed and minimized the worst error over the "correct" time frame,
# but the ephemeris may (or may not) diverge wildly outside of it.
#
# Ephem range: 61041.000000 61222.000000 1.000000
# Created Thu Dec 18 10:15:44 2025
# Ephemeris start:  1 Jan 2026  0:00:00
# Ephemeris end:    1 Jul 2026  0:00:00
# Times are all TDT
# Positions/velocities are in equatorial J2000
# Orbital elements:  2024-048A = NORAD 59228 = DRO-A
#    Perigee 2025 Dec 11.21356 +/- 1.8239e-5 TT =  5:07:31 (JD 2461020.71356)
# Epoch 2025 Dec  9.0 TT; AMR 0.016999 +/- 0.0012883 m^2/kg        Gray
# M 339.56742532 +/- 0.0002664        (J2000 equator)
# n   9.23064336 +/- 5.2303e-5        Peri.  170.89648 +/- 0.0002893
# a485790.321 +/- 1.835               Node   352.87501 +/- 5.342e-5
# e   0.3612874 +/- 2.5151e-6         Incl.   28.81400 +/- 1.7275e-5
# P  38.9998d                H 28.50  G  0.15   U  6.1
# q 310280.372 +/- 0.34637    Q 661300.271 +/- 3.686
# From 41 observations 2025 Nov. 26-Dec. 9; mean residual 0".303/0.73 sigmas
#
# 1 NoradU COSPAR   Epoch.epoch     dn/dt/2  d2n/dt2/6 BSTAR    T El# C
# 2 NoradU Inclina RAAscNode Eccent  ArgPeri MeanAno  MeanMotion Rev# C

# Worst residual: 49.88 km
# MJD 61041.000000 (2026 Jan  1  0:00)
2024-048A = NORAD 59228 = DRO-A
1 59228U 24048A   25365.99919926 +003P0K2O +004XV0OZ +002OPRY1H 29092
2 59228                          -00059MD2 +000182Y1 +0000QIYY     07

# Worst residual: 33.78 km
# MJD 61042.000000 (2026 Jan  2  0:00)
2024-048A = NORAD 59228 = DRO-A
1 59228U 24048A   26001.99919926 +002B5S6J +00542SSA +002SPW04H 29098
2 59228                          -00068K8L +00006IGZ +000061OU     04

# Worst residual: 16.11 km
# MJD 61043.000000 (2026 Jan  3  0:00)
2024-048A = NORAD 59228 = DRO-A
1 59228U 24048A   26002.99919926 +000PYELC +0050A63O +002R6DYTH 29091
2 59228                          -0006Y93D -00013REA -0000JWD4     07

# Worst residual: 12.37 km
# MJD 61044.000000 (2026 Jan  4  0:00)
2024-048A = NORAD 59228 = DRO-A
1 59228U 24048A   26003.99919926 -000ZS2S8 +004KA2EG +002IPISOH 29099
2 59228                          -000792OU -0002MMOF -0001FF5X     07

# Worst residual: 54.66 km
# MJD 61045.000000 (2026 Jan  5  0:00)
2024-048A = NORAD 59228 = DRO-A
1 59228U 24048A   26004.99919926 -002PIL1P +003QWZC0 +0022ESHOH 29092
2 59228                          -0006WXL2 -00044ALE -0002BPC2     01

# Worst residual: 57.15 km
# MJD 61046.000000 (2026 Jan  6  0:00)
2024-048A = NORAD 59228 = DRO-A
1 59228U 24048A   26005.99919926 -004905S5 +002MRT2T +001FD2VCH 29093
2 59228                          -0005T271 -00051S2A -0002XV33     02

# Worst residual: 33.56 km
# MJD 61047.000000 (2026 Jan  7  0:00)
2024-048A = NORAD 59228 = DRO-A
1 59228U 24048A   26006.99919926 -005GGLR3 +001DM9CJ +000OSQXAH 29092
2 59228                          -00047ZKU -0005B6HU -00035C67     04

# Worst residual: 30.69 km
# MJD 61048.000000 (2026 Jan  8  0:00)
2024-048A = NORAD 59228 = DRO-A
1 59228U 24048A   26007.99919926 -006A3003 +000492IW -00027T4QH 29096
2 59228                          -0002NWTR -00054VVN -00032HJ8     05

# Worst residual: 27.81 km
# MJD 61049.000000 (2026 Jan  9  0:00)
2024-048A = NORAD 59228 = DRO-A
1 59228U 24048A   26008.99919926 -006R339L -0012DV3G -000RR0POH 29095
2 59228                          -0001AXHN -0004P7Q6 -0002THXF     01

# Worst residual: 41.81 km
# MJD 61050.000000 (2026 Jan 10  0:00)
2024-048A = NORAD 59228 = DRO-A
1 59228U 24048A   26009.99919926 -006X12S4 -0024I0ED -001EM3UEH 29092
2 59228                          -00003478 -00043MEZ -0002GG44     00

# Worst residual: 39.06 km
# MJD 61051.000000 (2026 Jan 11  0:00)
2024-048A = NORAD 59228 = DRO-A
1 59228U 24048A   26010.99919926 -006SMJX4 -0030Z7JA -001XYVM4H 29096
2 59228                          +000143IY -0003ESAN -00020HFJ     03

# Worst residual: 15.17 km
# MJD 61052.000000 (2026 Jan 12  0:00)
2024-048A = NORAD 59228 = DRO-A
1 59228U 24048A   26011.99919926 -006DL5GV -003RIT8L -002DCEQTH 29096
2 59228                          +0002DH81 -0002QY5L -0001JRGD     09

# Worst residual: 20.96 km
# MJD 61053.000000 (2026 Jan 13  0:00)
2024-048A = NORAD 59228 = DRO-A
1 59228U 24048A   26012.99919926 -005NODSK -004CQS3B -002OUGFPH 29097
2 59228                          +0003LVP3 -000268Q6 -00014ACF     03

# Worst residual: 21.55 km
# MJD 61054.000000 (2026 Jan 14  0:00)
2024-048A = NORAD 59228 = DRO-A
1 59228U 24048A   26013.99919926 -004NLENA -004T248M -002WP8XNH 29096
2 59228                          +0004Q1DV -0001LAF9 -0000P0NE     05

# Worst residual: 15.83 km
# MJD 61055.000000 (2026 Jan 15  0:00)
2024-048A = NORAD 59228 = DRO-A
1 59228U 24048A   26014.99919926 -003EEW5L -0053W3GL -0030P198H 29095
2 59228                          +0005PQEH -0000VZST -00007S4U     06

# Worst residual: 17.49 km
# MJD 61056.000000 (2026 Jan 16  0:00)
2024-048A = NORAD 59228 = DRO-A
1 59228U 24048A   26015.99919926 -001X8MWC -0057UPMN -00305GMIH 29095
2 59228                          +0006KD0L +00000A7L +0000CZ67     04

# Worst residual: 38.54 km
# MJD 61057.000000 (2026 Jan 17  0:00)
2024-048A = NORAD 59228 = DRO-A
1 59228U 24048A   26016.99919926 -0009MRAT -0053530I -002U5SCKH 29099
2 59228                          +00076F9W +000142I2 +00011G2V     03

# Worst residual: 52.41 km
# MJD 61058.000000 (2026 Jan 18  0:00)
2024-048A = NORAD 59228 = DRO-A
1 59228U 24048A   26017.99919926 +001HGZPX -004OD33Y -002I49ELH 29093
2 59228                          +0007BNQX +0002AU16 +0001QHTR     05

# Worst residual: 58.59 km
# MJD 61059.000000 (2026 Jan 19  0:00)
2024-048A = NORAD 59228 = DRO-A
1 59228U 24048A   26018.99919926 +0036OU5Q -003ZV2MR -0020MAJEH 29099
2 59228                          +0006PKJL +0003BTKV +0002A1E4     04

# Worst residual: 31.25 km
# MJD 61060.000000 (2026 Jan 20  0:00)
2024-048A = NORAD 59228 = DRO-A
1 59228U 24048A   26019.99919926 +004NJDG0 -0033P49X -001FDZXOH 29093
2 59228                          +0005GBOH +0004287V +0002LJ9U     05

# Worst residual: 22.04 km
# MJD 61061.000000 (2026 Jan 21  0:00)
2024-048A = NORAD 59228 = DRO-A
1 59228U 24048A   26020.99919926 +005SC38P -0022OIQ8 -000SCABJH 29099
2 59228                          +0003ZD1W +0004G67W +0002PBXI     01

# Worst residual: 20.51 km
# MJD 61062.000000 (2026 Jan 22  0:00)
2024-048A = NORAD 59228 = DRO-A
1 59228U 24048A   26021.99919926 +006KFQT2 -000ZQ2FV -00056JFQH 29093
2 59228                          +0002J8CH +0004IS9W +0002MQ5F     08

# Worst residual: 29.48 km
# MJD 61063.000000 (2026 Jan 23  0:00)
2024-048A = NORAD 59228 = DRO-A
1 59228U 24048A   26022.99919926 +0070BKFR +0002R08E +000GQ6ECH 29094
2 59228                          +00015EM2 +0004CK5N +0002F3JU     00

# Worst residual: 33.90 km
# MJD 61064.000000 (2026 Jan 24  0:00)
2024-048A = NORAD 59228 = DRO-A
1 59228U 24048A   26023.99919926 +0074B6FC +0012WW8N +0010B111H 29094
2 59228                          -00008HVF +0003ZZNO +00023I9V     04

# Worst residual: 43.53 km
# MJD 61065.000000 (2026 Jan 25  0:00)
2024-048A = NORAD 59228 = DRO-A
1 59228U 24048A   26024.99919926 +006VYIGH +001ZNLEF +001GT6KEH 29097
2 59228                          -0001PQS7 +0003KU0H +0001PZKW     01

# Worst residual: 44.35 km
# MJD 61066.000000 (2026 Jan 26  0:00)
2024-048A = NORAD 59228 = DRO-A
1 59228U 24048A   26025.99919926 +006AJHGF +002SUL22 +001U5SEEH 29092
2 59228                          -00038ICV +00036KJQ +0001DJLZ     00

